[{"OBJECT_NAME":"COSMOS 2251 DEB","OBJECT_ID":"1993-036VL","EPOCH":"2026-03-13T21:27:49.277376","MEAN_MOTION":14.72180773,"ECCENTRICITY":0.00662932,"INCLINATION":74.0671,"RA_OF_ASC_NODE":226.3347,"ARG_OF_PERICENTER":225.3246,"MEAN_ANOMALY":290.1969,"EPHEMERIS_TYPE":0,"CLASSIFICATION_TYPE":"U","NORAD_CAT_ID":34574,"ELEMENT_SET_NO":999,"REV_AT_EPOCH":90119,"BSTAR":0.0014560035,"MEAN_MOTION_DOT":9.481e-5,"MEAN_MOTION_DDOT":0},{"OBJECT_NAME":"COSMOS 2251 DEB","OBJECT_ID":"1993-036VN","EPOCH":"2026-03-13T22:56:36.539808","MEAN_MOTION":14.56155426,"ECCENTRICITY":0.00065091,"INCLINATION":74.0362,"RA_OF_ASC_NODE":325.286,"ARG_OF_PERICENTER":84.5955,"MEAN_ANOMALY":290.4888,"EPHEMERIS_TYPE":0,"CLASSIFICATION_TYPE":"U","NORAD_CAT_ID":34576,"ELEMENT_SET_NO":999,"REV_AT_EPOCH":89794,"BSTAR":0.00067396225,"MEAN_MOTION_DOT":2.949e-5,"MEAN_MOTION_DDOT":0},{"OBJECT_NAME":"COSMOS 2251 DEB","OBJECT_ID":"1993-036VR","EPOCH":"2026-03-13T09:57:34.456032","MEAN_MOTION":14.45641469,"ECCENTRICITY":0.00246637,"INCLINATION":74.0519,"RA_OF_ASC_NODE":55.0322,"ARG_OF_PERICENTER":104.5983,"MEAN_ANOMALY":49.0399,"EPHEMERIS_TYPE":0,"CLASSIFICATION_TYPE":"U","NORAD_CAT_ID":34579,"ELEMENT_SET_NO":999,"REV_AT_EPOCH":89484,"BSTAR":0.0004925787,"MEAN_MOTION_DOT":1.722e-5,"MEAN_MOTION_DDOT":0},{"OBJECT_NAME":"COSMOS 2251 DEB","OBJECT_ID":"1993-036VU","EPOCH":"2026-03-14T11:42:27.896832","MEAN_MOTION":14.43781296,"ECCENTRICITY":0.00493333,"INCLINATION":74.0177,"RA_OF_ASC_NODE":101.6915,"ARG_OF_PERICENTER":194.4502,"MEAN_ANOMALY":165.5249,"EPHEMERIS_TYPE":0,"CLASSIFICATION_TYPE":"U","NORAD_CAT_ID":34582,"ELEMENT_SET_NO":999,"REV_AT_EPOCH":89271,"BSTAR":0.00056716565,"MEAN_MOTION_DOT":1.932e-5,"MEAN_MOTION_DDOT":0},{"OBJECT_NAME":"COSMOS 2251 DEB","OBJECT_ID":"1993-036WA","EPOCH":"2026-03-14T12:28:10.123104","MEAN_MOTION":14.42330253,"ECCENTRICITY":0.00168762,"INCLINATION":74.0407,"RA_OF_ASC_NODE":98.1488,"ARG_OF_PERICENTER":138.0653,"MEAN_ANOMALY":344.8944,"EPHEMERIS_TYPE":0,"CLASSIFICATION_TYPE":"U","NORAD_CAT_ID":34588,"ELEMENT_SET_NO":999,"REV_AT_EPOCH":89273,"BSTAR":0.00038817322,"MEAN_MOTION_DOT":1.258e-5,"MEAN_MOTION_DDOT":0},{"OBJECT_NAME":"COSMOS 2251 DEB","OBJECT_ID":"1993-036WB","EPOCH":"2026-03-14T07:09:57.940992","MEAN_MOTION":13.86272911,"ECCENTRICITY":0.02506397,"INCLINATION":73.9225,"RA_OF_ASC_NODE":259.9792,"ARG_OF_PERICENTER":185.6342,"MEAN_ANOMALY":352.1931,"EPHEMERIS_TYPE":0,"CLASSIFICATION_TYPE":"U","NORAD_CAT_ID":34589,"ELEMENT_SET_NO":999,"REV_AT_EPOCH":85980,"BSTAR":0.00067472938,"MEAN_MOTION_DOT":9.74e-6,"MEAN_MOTION_DDOT":0},{"OBJECT_NAME":"COSMOS 2251 DEB","OBJECT_ID":"1993-036WC","EPOCH":"2026-03-13T23:14:09.959712","MEAN_MOTION":14.54957942,"ECCENTRICITY":0.00705797,"INCLINATION":74.0441,"RA_OF_ASC_NODE":149.9616,"ARG_OF_PERICENTER":256.7074,"MEAN_ANOMALY":284.0247,"EPHEMERIS_TYPE":0,"CLASSIFICATION_TYPE":"U","NORAD_CAT_ID":34590,"ELEMENT_SET_NO":999,"REV_AT_EPOCH":90447,"BSTAR":0.00013399652,"MEAN_MOTION_DOT":5.65e-6,"MEAN_MOTION_DDOT":0},{"OBJECT_NAME":"COSMOS 2251 DEB","OBJECT_ID":"1993-036WE","EPOCH":"2026-03-14T14:45:18.313056","MEAN_MOTION":14.22190782,"ECCENTRICITY":0.01436275,"INCLINATION":73.7318,"RA_OF_ASC_NODE":298.7437,"ARG_OF_PERICENTER":144.2068,"MEAN_ANOMALY":247.8639,"EPHEMERIS_TYPE":0,"CLASSIFICATION_TYPE":"U","NORAD_CAT_ID":34609,"ELEMENT_SET_NO":999,"REV_AT_EPOCH":87938,"BSTAR":0.00076937272,"MEAN_MOTION_DOT":1.869e-5,"MEAN_MOTION_DDOT":0},{"OBJECT_NAME":"COSMOS 2251 DEB","OBJECT_ID":"1993-036WF","EPOCH":"2026-03-14T11:09:53.790624","MEAN_MOTION":14.07662476,"ECCENTRICITY":0.01817338,"INCLINATION":74.016,"RA_OF_ASC_NODE":101.3738,"ARG_OF_PERICENTER":212.0907,"MEAN_ANOMALY":146.9066,"EPHEMERIS_TYPE":0,"CLASSIFICATION_TYPE":"U","NORAD_CAT_ID":34610,"ELEMENT_SET_NO":999,"REV_AT_EPOCH":86850,"BSTAR":0.0014386885,"MEAN_MOTION_DOT":2.803e-5,"MEAN_MOTION_DDOT":0},{"OBJECT_NAME":"COSMOS 2251 DEB","OBJECT_ID":"1993-036WG","EPOCH":"2026-03-14T08:11:39.690240","MEAN_MOTION":14.71354712,"ECCENTRICITY":0.0022281,"INCLINATION":74.052,"RA_OF_ASC_NODE":283.418,"ARG_OF_PERICENTER":299.3637,"MEAN_ANOMALY":114.0507,"EPHEMERIS_TYPE":0,"CLASSIFICATION_TYPE":"U","NORAD_CAT_ID":34611,"ELEMENT_SET_NO":999,"REV_AT_EPOCH":89737,"BSTAR":0.0012137794,"MEAN_MOTION_DOT":7.513e-5,"MEAN_MOTION_DDOT":0},{"OBJECT_NAME":"COSMOS 2251 DEB","OBJECT_ID":"1993-036WJ","EPOCH":"2026-03-14T13:18:47.863296","MEAN_MOTION":14.27049713,"ECCENTRICITY":0.01153914,"INCLINATION":73.9622,"RA_OF_ASC_NODE":111.7456,"ARG_OF_PERICENTER":281.8218,"MEAN_ANOMALY":231.2158,"EPHEMERIS_TYPE":0,"CLASSIFICATION_TYPE":"U","NORAD_CAT_ID":34613,"ELEMENT_SET_NO":999,"REV_AT_EPOCH":87772,"BSTAR":0.0014215418,"MEAN_MOTION_DOT":3.69e-5,"MEAN_MOTION_DDOT":0},{"OBJECT_NAME":"COSMOS 2251 DEB","OBJECT_ID":"1993-036WK","EPOCH":"2026-03-13T07:09:02.232864","MEAN_MOTION":14.20081439,"ECCENTRICITY":0.01852412,"INCLINATION":73.8769,"RA_OF_ASC_NODE":180.5668,"ARG_OF_PERICENTER":159.4682,"MEAN_ANOMALY":221.9654,"EPHEMERIS_TYPE":0,"CLASSIFICATION_TYPE":"U","NORAD_CAT_ID":34614,"ELEMENT_SET_NO":999,"REV_AT_EPOCH":86051,"BSTAR":0.0042857571,"MEAN_MOTION_DOT":0.00010836,"MEAN_MOTION_DDOT":0},{"OBJECT_NAME":"COSMOS 2251 DEB","OBJECT_ID":"1993-036WL","EPOCH":"2026-03-14T14:48:11.576160","MEAN_MOTION":13.52333596,"ECCENTRICITY":0.03990714,"INCLINATION":74.0046,"RA_OF_ASC_NODE":146.7888,"ARG_OF_PERICENTER":34.5671,"MEAN_ANOMALY":113.4587,"EPHEMERIS_TYPE":0,"CLASSIFICATION_TYPE":"U","NORAD_CAT_ID":34615,"ELEMENT_SET_NO":999,"REV_AT_EPOCH":84057,"BSTAR":0.00018153533,"MEAN_MOTION_DOT":1.78e-6,"MEAN_MOTION_DDOT":0},{"OBJECT_NAME":"COSMOS 2251 DEB","OBJECT_ID":"1993-036WQ","EPOCH":"2026-03-14T02:34:40.509984","MEAN_MOTION":14.64957719,"ECCENTRICITY":0.00917156,"INCLINATION":74.0459,"RA_OF_ASC_NODE":24.315,"ARG_OF_PERICENTER":96.2903,"MEAN_ANOMALY":264.8721,"EPHEMERIS_TYPE":0,"CLASSIFICATION_TYPE":"U","NORAD_CAT_ID":34619,"ELEMENT_SET_NO":999,"REV_AT_EPOCH":90636,"BSTAR":0.0002720592,"MEAN_MOTION_DOT":1.517e-5,"MEAN_MOTION_DDOT":0},{"OBJECT_NAME":"COSMOS 2251 DEB","OBJECT_ID":"1993-036WR","EPOCH":"2026-03-12T21:45:33.997536","MEAN_MOTION":14.5140906,"ECCENTRICITY":0.00707136,"INCLINATION":74.0509,"RA_OF_ASC_NODE":50.2734,"ARG_OF_PERICENTER":64.8268,"MEAN_ANOMALY":296.0204,"EPHEMERIS_TYPE":0,"CLASSIFICATION_TYPE":"U","NORAD_CAT_ID":34620,"ELEMENT_SET_NO":999,"REV_AT_EPOCH":88134,"BSTAR":0.0030974736,"MEAN_MOTION_DOT":0.00012761,"MEAN_MOTION_DDOT":0},{"OBJECT_NAME":"COSMOS 2251 DEB","OBJECT_ID":"1993-036WT","EPOCH":"2026-03-14T15:27:21.011616","MEAN_MOTION":14.22444775,"ECCENTRICITY":0.01068979,"INCLINATION":74.0416,"RA_OF_ASC_NODE":142.0614,"ARG_OF_PERICENTER":205.0359,"MEAN_ANOMALY":308.3347,"EPHEMERIS_TYPE":0,"CLASSIFICATION_TYPE":"U","NORAD_CAT_ID":34622,"ELEMENT_SET_NO":999,"REV_AT_EPOCH":87766,"BSTAR":0.00082322558,"MEAN_MOTION_DOT":1.92e-5,"MEAN_MOTION_DDOT":0}]
