COSMOS 2251 DEB         
1 34574U 93036VL  26072.89432034  .00009481  00000+0  14560-2 0  9993
2 34574  74.0671 226.3347 0066293 225.3246 290.1969 14.72180773901193
COSMOS 2251 DEB         
1 34576U 93036VN  26072.95597847  .00002949  00000+0  67396-3 0  9994
2 34576  74.0362 325.2860 0006509  84.5955 290.4888 14.56155426897946
COSMOS 2251 DEB         
1 34579U 93036VR  26072.41498213  .00001722  00000+0  49258-3 0  9990
2 34579  74.0519  55.0322 0024663 104.5983  49.0399 14.45641469894845
COSMOS 2251 DEB         
1 34582U 93036VU  26073.48782288  .00001932  00000+0  56717-3 0  9991
2 34582  74.0177 101.6915 0049333 194.4502 165.5249 14.43781296892714
COSMOS 2251 DEB         
1 34588U 93036WA  26073.51956161  .00001258  00000+0  38817-3 0  9996
2 34588  74.0407  98.1488 0016876 138.0653 344.8944 14.42330253892736
COSMOS 2251 DEB         
1 34589U 93036WB  26073.29858728  .00000974  00000+0  67473-3 0  9996
2 34589  73.9225 259.9792 0250639 185.6342 352.1931 13.86272911859800
COSMOS 2251 DEB         
1 34590U 93036WC  26072.96817083  .00000565  00000+0  13400-3 0  9997
2 34590  74.0441 149.9616 0070579 256.7074 284.0247 14.54957942904479
COSMOS 2251 DEB         
1 34609U 93036WE  26073.61479529  .00001869  00000+0  76937-3 0  9992
2 34609  73.7318 298.7437 0143627 144.2068 247.8639 14.22190782879381
COSMOS 2251 DEB         
1 34610U 93036WF  26073.46520591  .00002803  00000+0  14387-2 0  9992
2 34610  74.0160 101.3738 0181733 212.0907 146.9066 14.07662476868503
COSMOS 2251 DEB         
1 34611U 93036WG  26073.34143160  .00007513  00000+0  12138-2 0  9998
2 34611  74.0520 283.4180 0022281 299.3637 114.0507 14.71354712897372
COSMOS 2251 DEB         
1 34613U 93036WJ  26073.55472064  .00003690  00000+0  14215-2 0  9991
2 34613  73.9622 111.7456 0115391 281.8218 231.2158 14.27049713877724
COSMOS 2251 DEB         
1 34614U 93036WK  26072.29794251  .00010836  00000+0  42858-2 0  9991
2 34614  73.8769 180.5668 0185241 159.4682 221.9654 14.20081439860511
COSMOS 2251 DEB         
1 34615U 93036WL  26073.61680065  .00000178  00000+0  18154-3 0  9997
2 34615  74.0046 146.7888 0399071  34.5671 113.4587 13.52333596840572
COSMOS 2251 DEB         
1 34619U 93036WQ  26073.10741331  .00001517  00000+0  27206-3 0  9995
2 34619  74.0459  24.3150 0091715  96.2903 264.8721 14.64957719906368
COSMOS 2251 DEB         
1 34620U 93036WR  26071.90664349  .00012761  00000+0  30975-2 0  9995
2 34620  74.0509  50.2734 0070713  64.8268 296.0204 14.51409060881342
COSMOS 2251 DEB         
1 34622U 93036WT  26073.64399319  .00001920  00000+0  82323-3 0  9992
2 34622  74.0416 142.0614 0106897 205.0359 308.3347 14.22444775877666
